NORAD_CAT_ID,OBJECT_NAME,OBJECT_TYPE,EPOCH,MEAN_MOTION,ECCENTRICITY,INCLINATION,RA_OF_ASC_NODE,ARG_OF_PERICENTER,MEAN_ANOMALY,BSTAR,MEAN_MOTION_DOT,MEAN_MOTION_DDOT,TLE_LINE0,TLE_LINE1,TLE_LINE2,SEMIMAJOR_AXIS,PERIOD,APOGEE,PERIGEE,DECAYED
51992.0,STARLINK-3643,PAYLOAD,2022-03-24 14:00:01,15.73237289,0.0001022,53.218,65.3919,77.1426,230.1538,-0.00032926,-0.00046646,0.0,0 STARLINK-3643,1 51992U 22025AN  22083.58334491 -.00046646  00000-0 -32926-3 0  9992,2 51992  53.2180  65.3919 0001022  77.1426 230.1538 15.73237289  2586,6727.7890000000025,91.531,350.341,348.966,0.0
51992.0,STARLINK-3643,PAYLOAD,2022-03-24 20:00:01,15.73183649,9.36e-05,53.218,64.1536,90.663,193.3639,0.00027521,0.00038152,0.0,0 STARLINK-3643,1 51992U 22025AN  22083.83334491  .00038152  00000-0  27521-3 0  9996,2 51992  53.2180  64.1536 0000936  90.6630 193.3639 15.73183649  3693,6727.941999999999,91.534,350.43699999999984,349.177,0.0
51992.0,STARLINK-3643,PAYLOAD,2022-03-24 22:00:00,15.73174028,9.58e-05,53.2183,63.7412,93.4118,302.8486,0.0005153,0.00072241,0.0,0 STARLINK-3643,1 51992U 22025AN  22083.91667824  .00072241  00000-0  51530-3 0  9998,2 51992  53.2183  63.7412 0000958  93.4118 302.8486 15.73174028  2631,6727.969,91.535,350.47900000000016,349.19,0.0
51992.0,STARLINK-3643,PAYLOAD,2022-03-25 12:00:00,15.7322193,0.0001193,53.2182,60.8566,77.9861,23.8982,-0.00041481,-0.00058486,0.0,0 STARLINK-3643,1 51992U 22025AN  22084.50001157 -.00058486  00000-0 -41481-3 0  9996,2 51992  53.2182  60.8566 0001193  77.9861  23.8982 15.73221930  3796,6727.833000000001,91.532,350.5,348.895,0.0
51992.0,STARLINK-3643,PAYLOAD,2022-03-25 14:00:01,15.73228313,0.0001232,53.2184,60.4437,82.9734,131.141,-0.00061871,-0.00086666,0.0,0 STARLINK-3643,1 51992U 22025AN  22084.58334491 -.00086666  00000-0 -61871-3 0  9990,2 51992  53.2184  60.4437 0001232  82.9734 131.1410 15.73228313  2745,6727.814,91.532,350.5080000000001,348.851,0.0
51992.0,STARLINK-3643,PAYLOAD,2022-03-25 22:00:01,15.73165046,0.0001383,53.2184,58.7922,92.4256,210.6794,0.00058129,0.00081634,0.0,0 STARLINK-3643,1 51992U 22025AN  22084.91668981  .00081634  00000-0  58129-3 0  9991,2 51992  53.2184  58.7922 0001383  92.4256 210.6794 15.73165046  2792,6727.995,91.535,350.79,348.92900000000014,0.0
51992.0,STARLINK-3643,PAYLOAD,2022-03-26 04:00:00,15.73212376,0.0001384,53.2185,57.5576,84.2109,195.4945,1.2916999999999998e-06,-4.39e-06,0.0,0 STARLINK-3643,1 51992U 22025AN  22085.16667824 -.00000439  00000-0  12917-5 0  9996,2 51992  53.2185  57.5576 0001384  84.2109 195.4945 15.73212376  3903,6727.86,91.532,350.656,348.7940000000001,0.0
51992.0,STARLINK-3643,PAYLOAD,2022-03-26 14:00:01,15.73195385,0.000113,53.2182,55.4951,87.053,33.8378,5.7764e-05,7.493e-05,0.0,0 STARLINK-3643,1 51992U 22025AN  22085.58334491  .00007493  00000-0  57764-4 0  9997,2 51992  53.2182  55.4951 0001130  87.0530  33.8378 15.73195385  2906,6727.908,91.533,350.534,349.01300000000015,0.0
51992.0,STARLINK-3643,PAYLOAD,2022-03-26 22:00:00,15.73237657,0.0001091,53.2184,53.8447,100.8938,108.9073,-0.00016529,-0.00023788,0.0,0 STARLINK-3643,1 51992U 22025AN  22085.91667824 -.00023788  00000-0 -16529-3 0  9993,2 51992  53.2184  53.8447 0001091 100.8938 108.9073 15.73237657  2952,6727.788000000001,91.531,350.38699999999994,348.9190000000001,0.0
51992.0,STARLINK-3643,PAYLOAD,2022-03-27 12:00:00,15.73204607,0.0001026,53.2183,50.9595,87.0129,188.4559,-0.00011529,-0.0001676999999999,0.0,0 STARLINK-3643,1 51992U 22025AN  22086.50001157 -.00016770  00000-0 -11529-3 0  9998,2 51992  53.2183  50.9595 0001026  87.0129 188.4559 15.73204607  4110,6727.882,91.533,350.43699999999984,349.057,0.0
51992.0,STARLINK-3643,PAYLOAD,2022-03-27 14:00:01,15.7319443,0.0001085999999999,53.2185,50.5466,92.7568,294.9451,8.1515e-05,0.00010832,0.0,0 STARLINK-3643,1 51992U 22025AN  22086.58334491  .00010832  00000-0  81515-4 0  9990,2 51992  53.2185  50.5466 0001086  92.7568 294.9451 15.73194430  3060,6727.911,91.534,350.50699999999995,349.045,0.0
51992.0,STARLINK-3643,PAYLOAD,2022-03-27 20:00:01,15.73178847,0.0001141,53.2187,49.3082,99.0757,265.3179,0.00071348,0.00100627,0.0,0 STARLINK-3643,1 51992U 22025AN  22086.83334491  .00100627  00000-0  71348-3 0  9992,2 51992  53.2187  49.3082 0001141  99.0757 265.3179 15.73178847  4169,6727.955,91.534,350.588,349.05300000000005,0.0
51992.0,STARLINK-3643,PAYLOAD,2022-03-27 22:00:01,15.73210427,0.0001184,53.2189,48.8961,99.473,17.2097,0.0004807,0.00067416,0.0,0 STARLINK-3643,1 51992U 22025AN  22086.91668981  .00067416  00000-0  48070-3 0  9999,2 51992  53.2189  48.8961 0001184  99.4730  17.2097 15.73210427  3111,6727.865,91.533,350.527,348.934,0.0
51992.0,STARLINK-3643,PAYLOAD,2022-03-28 12:00:00,15.73264278,0.0001023,53.2184,46.0106,90.4737,91.8929,-0.00052017,-0.00073188,0.0,0 STARLINK-3643,1 51992U 22025AN  22087.50001157 -.00073188  00000-0 -52017-3 0  9992,2 51992  53.2184  46.0106 0001023  90.4737  91.8929 15.73264278  4269,6727.712,91.529,350.265,348.889,0.0
51992.0,STARLINK-3643,PAYLOAD,2022-03-28 14:00:01,15.73236187,0.0001032,53.2186,45.5975,97.3082,197.3775,-0.00020737,-0.00029664,0.0,0 STARLINK-3643,1 51992U 22025AN  22087.58335648 -.00029664  00000-0 -20737-3 0  9999,2 51992  53.2186  45.5975 0001032  97.3082 197.3775 15.73236187  3222,6727.792,91.531,350.351,348.963,0.0
51992.0,STARLINK-3643,PAYLOAD,2022-03-28 22:00:00,15.73231753,9.88e-05,53.2188,43.9475,108.6652,274.8996,-0.00040895,-0.00057696,0.0,0 STARLINK-3643,1 51992U 22025AN  22087.91667824 -.00057696  00000-0 -40895-3 0  9993,2 51992  53.2188  43.9475 0000988 108.6652 274.8996 15.73231753  3274,6727.805,91.531,350.334,349.005,0.0
51992.0,STARLINK-3643,PAYLOAD,2022-03-29 04:00:00,15.732200099999998,8.48e-05,53.2187,42.7121,99.0246,261.2583,-0.00067694,-0.00094638,0.0,0 STARLINK-3643,1 51992U 22025AN  22088.16667824 -.00094638  00000-0 -67694-3 0  9994,2 51992  53.2187  42.7121 0000848  99.0246 261.2583 15.73220010  4373,6727.8380000000025,91.532,350.274,349.1330000000001,0.0
51992.0,STARLINK-3643,PAYLOAD,2022-03-29 14:00:01,15.73142522,9.2e-05,53.2191,40.649,103.9112,97.4814,0.00029191,0.00040444,0.0,0 STARLINK-3643,1 51992U 22025AN  22088.58334491  .00040444  00000-0  29191-3 0  9995,2 51992  53.2191  40.6490 0000920 103.9112  97.4814 15.73142522  3389,6728.059,91.537,350.543,349.305,0.0
51992.0,STARLINK-3643,PAYLOAD,2022-03-29 20:00:01,15.73182311,0.0001103,53.2193,39.4111,110.6769,67.363,0.00017412,0.00023867,0.0,0 STARLINK-3643,1 51992U 22025AN  22088.83334491  .00023867  00000-0  17412-3 0  9996,2 51992  53.2193  39.4111 0001103 110.6769  67.3630 15.73182311  4477,6727.946,91.534,350.55300000000005,349.069,0.0
51992.0,STARLINK-3643,PAYLOAD,2022-03-29 22:00:00,15.73217224,0.0001112,53.2195,38.9992,108.998,181.2599,-0.00032217,-0.00045621,0.0,0 STARLINK-3643,1 51992U 22025AN  22088.91667824 -.00045621  00000-0 -32217-3 0  9998,2 51992  53.2195  38.9992 0001112 108.9980 181.2599 15.73217224  3432,6727.846,91.532,350.459,348.963,0.0
51992.0,STARLINK-3643,PAYLOAD,2022-03-30 12:00:00,15.73242861,0.0001323,53.2191,36.1137,100.6512,255.2195,-0.00053737,-0.000755,0.0,0 STARLINK-3643,1 51992U 22025AN  22089.50001157 -.00075500  00000-0 -53737-3 0  9994,2 51992  53.2191  36.1137 0001323 100.6512 255.2195 15.73242861  4589,6727.773,91.531,350.528,348.74800000000016,0.0
51992.0,STARLINK-3643,PAYLOAD,2022-03-30 14:00:01,15.73203925,0.0001336,53.2193,35.7007,105.0424,3.1431,-2.8984e-05,-4.686e-05,0.0,0 STARLINK-3643,1 51992U 22025AN  22089.58335648 -.00004686  00000-0 -28984-4 0  9991,2 51992  53.2193  35.7007 0001336 105.0424   3.1431 15.73203925  3543,6727.884,91.533,350.648,348.85,0.0
51992.0,STARLINK-3643,PAYLOAD,2022-03-30 20:00:01,15.73181349,0.0001519,53.2192,34.4633,109.154,335.6398,0.00057335,0.00080557,0.0,0 STARLINK-3643,1 51992U 22025AN  22089.83334491  .00080557  00000-0  57335-3 0  9994,2 51992  53.2192  34.4633 0001519 109.1540 335.6398 15.73181349  4631,6727.948,91.534,350.835,348.791,0.0
51992.0,STARLINK-3643,PAYLOAD,2022-03-30 22:00:00,15.73226082,0.000147,53.219,34.0515,110.3157,86.6982,3.7713e-05,4.681e-05,0.0,0 STARLINK-3643,1 51992U 22025AN  22089.91667824  .00004681  00000-0  37713-4 0  9995,2 51992  53.2190  34.0515 0001470 110.3157  86.6982 15.73226082  3598,6727.821,91.532,350.675,348.69699999999995,0.0
51992.0,STARLINK-3643,PAYLOAD,2022-03-31 04:00:00,15.73214979,0.0001291999999999,53.2183,32.816,101.7152,72.0213,-3.7229e-05,-5.844e-05,0.0,0 STARLINK-3643,1 51992U 22025AN  22090.16667824 -.00005844  00000-0 -37229-4 0  9990,2 51992  53.2183  32.8160 0001292 101.7152  72.0213 15.73214979  4682,6727.852,91.532,350.587,348.848,0.0
51992.0,STARLINK-3643,PAYLOAD,2022-03-31 14:00:01,15.732440900000002,0.0001254,53.2177,30.7523,112.4,262.5193,-0.00027349,-0.00038897,0.0,0 STARLINK-3643,1 51992U 22025AN  22090.58334491 -.00038897  00000-0 -27349-3 0  9992,2 51992  53.2177  30.7523 0001254 112.4000 262.5193 15.73244090  3694,6727.769,91.531,350.478,348.791,0.0
51992.0,STARLINK-3643,PAYLOAD,2022-03-31 20:00:01,15.73248647,0.0001358,53.2178,29.5149,116.1217,235.5416,-6.9069e-05,-0.00010322,0.0,0 STARLINK-3643,1 51992U 22025AN  22090.83334491 -.00010322  00000-0 -69069-4 0  9999,2 51992  53.2178  29.5149 0001358 116.1217 235.5416 15.73248647  4793,6727.755999999999,91.53,350.535,348.708,0.0
51992.0,STARLINK-3643,PAYLOAD,2022-03-31 22:00:00,15.73251811,0.000133,53.2179,29.1031,115.0108,348.8967,-0.00011793,-0.00017174,0.0,0 STARLINK-3643,1 51992U 22025AN  22090.91667824 -.00017174  00000-0 -11793-3 0  9999,2 51992  53.2179  29.1031 0001330 115.0108 348.8967 15.73251811  3714,6727.746999999999,91.53,350.50699999999995,348.718,0.0
51992.0,STARLINK-3643,PAYLOAD,2022-04-01 04:00:01,15.73259185,0.0001227,53.2179,27.8676,106.0352,334.6862,9.7799e-05,0.00013161,0.0,0 STARLINK-3643,1 51992U 22025AN  22091.16668981  .00013161  00000-0  97799-4 0  9993,2 51992  53.2179  27.8676 0001227 106.0352 334.6862 15.73259185  4844,6727.726,91.53,350.417,348.766,0.0
